[{"OBJECT_NAME":"ONEWEB-0319","OBJECT_ID":"2021-075AG","EPOCH":"2025-10-13T07:19:04.860768","MEAN_MOTION":13.17647932,"ECCENTRICITY":0.00017654,"INCLINATION":87.9094,"RA_OF_ASC_NODE":54.9709,"ARG_OF_PERICENTER":83.28,"MEAN_ANOMALY":276.8532,"EPHEMERIS_TYPE":0,"CLASSIFICATION_TYPE":"U","NORAD_CAT_ID":49105,"ELEMENT_SET_NO":999,"REV_AT_EPOCH":20109,"BSTAR":-7.6635883e-5,"MEAN_MOTION_DOT":-1.7e-7,"MEAN_MOTION_DDOT":0},{"OBJECT_NAME":"ONEWEB-0323","OBJECT_ID":"2021-075AH","EPOCH":"2025-10-13T08:05:37.160160","MEAN_MOTION":13.12443161,"ECCENTRICITY":0.00018833,"INCLINATION":87.8957,"RA_OF_ASC_NODE":39.6805,"ARG_OF_PERICENTER":78.1867,"MEAN_ANOMALY":281.9472,"EPHEMERIS_TYPE":0,"CLASSIFICATION_TYPE":"U","NORAD_CAT_ID":49106,"ELEMENT_SET_NO":999,"REV_AT_EPOCH":20217,"BSTAR":-0.00070316602,"MEAN_MOTION_DOT":-2.4e-6,"MEAN_MOTION_DDOT":0},{"OBJECT_NAME":"ONEWEB-0329","OBJECT_ID":"2021-075AJ","EPOCH":"2025-10-13T07:31:13.570464","MEAN_MOTION":13.17651104,"ECCENTRICITY":0.00017898,"INCLINATION":87.9092,"RA_OF_ASC_NODE":54.9723,"ARG_OF_PERICENTER":93.9181,"MEAN_ANOMALY":266.2156,"EPHEMERIS_TYPE":0,"CLASSIFICATION_TYPE":"U","NORAD_CAT_ID":49107,"ELEMENT_SET_NO":999,"REV_AT_EPOCH":20107,"BSTAR":0.00020473941,"MEAN_MOTION_DOT":9.2e-7,"MEAN_MOTION_DDOT":0},{"OBJECT_NAME":"ONEWEB-0330","OBJECT_ID":"2021-075AK","EPOCH":"2025-10-13T07:32:26.098080","MEAN_MOTION":13.17651066,"ECCENTRICITY":0.00019427,"INCLINATION":87.9094,"RA_OF_ASC_NODE":54.9768,"ARG_OF_PERICENTER":96.7796,"MEAN_ANOMALY":263.3557,"EPHEMERIS_TYPE":0,"CLASSIFICATION_TYPE":"U","NORAD_CAT_ID":49108,"ELEMENT_SET_NO":999,"REV_AT_EPOCH":20111,"BSTAR":0.00023446574,"MEAN_MOTION_DOT":1.04e-6,"MEAN_MOTION_DDOT":0},{"OBJECT_NAME":"ONEWEB-0292","OBJECT_ID":"2021-083A","EPOCH":"2025-10-13T06:34:31.172160","MEAN_MOTION":13.13471186,"ECCENTRICITY":0.00017499,"INCLINATION":87.9043,"RA_OF_ASC_NODE":9.3298,"ARG_OF_PERICENTER":95.4811,"MEAN_ANOMALY":264.6518,"EPHEMERIS_TYPE":0,"CLASSIFICATION_TYPE":"U","NORAD_CAT_ID":49186,"ELEMENT_SET_NO":999,"REV_AT_EPOCH":19851,"BSTAR":-0.00033969023,"MEAN_MOTION_DOT":-1.11e-6,"MEAN_MOTION_DDOT":0},{"OBJECT_NAME":"ONEWEB-0303","OBJECT_ID":"2021-083B","EPOCH":"2025-10-13T06:00:11.820384","MEAN_MOTION":13.18686672,"ECCENTRICITY":0.00017597,"INCLINATION":87.923,"RA_OF_ASC_NODE":24.4928,"ARG_OF_PERICENTER":94.2868,"MEAN_ANOMALY":265.8465,"EPHEMERIS_TYPE":0,"CLASSIFICATION_TYPE":"U","NORAD_CAT_ID":49187,"ELEMENT_SET_NO":999,"REV_AT_EPOCH":19743,"BSTAR":0.0001328642,"MEAN_MOTION_DOT":6.5e-7,"MEAN_MOTION_DDOT":0},{"OBJECT_NAME":"ONEWEB-0306","OBJECT_ID":"2021-083C","EPOCH":"2025-10-13T07:35:12.461280","MEAN_MOTION":13.18687636,"ECCENTRICITY":0.00018772,"INCLINATION":87.9229,"RA_OF_ASC_NODE":24.4652,"ARG_OF_PERICENTER":106.8777,"MEAN_ANOMALY":253.2561,"EPHEMERIS_TYPE":0,"CLASSIFICATION_TYPE":"U","NORAD_CAT_ID":49188,"ELEMENT_SET_NO":999,"REV_AT_EPOCH":19748,"BSTAR":0.00021999615,"MEAN_MOTION_DOT":1.0e-6,"MEAN_MOTION_DDOT":0},{"OBJECT_NAME":"ONEWEB-0307","OBJECT_ID":"2021-083D","EPOCH":"2025-10-13T06:25:58.211904","MEAN_MOTION":13.13468092,"ECCENTRICITY":0.00017696,"INCLINATION":87.9034,"RA_OF_ASC_NODE":9.3257,"ARG_OF_PERICENTER":101.5389,"MEAN_ANOMALY":258.5939,"EPHEMERIS_TYPE":0,"CLASSIFICATION_TYPE":"U","NORAD_CAT_ID":49189,"ELEMENT_SET_NO":999,"REV_AT_EPOCH":19851,"BSTAR":-0.0007372857,"MEAN_MOTION_DOT":-2.56e-6,"MEAN_MOTION_DDOT":0},{"OBJECT_NAME":"ONEWEB-0320","OBJECT_ID":"2021-083E","EPOCH":"2025-10-13T07:44:47.868864","MEAN_MOTION":13.18685654,"ECCENTRICITY":0.0001806,"INCLINATION":87.9231,"RA_OF_ASC_NODE":24.4923,"ARG_OF_PERICENTER":100.7194,"MEAN_ANOMALY":259.4141,"EPHEMERIS_TYPE":0,"CLASSIFICATION_TYPE":"U","NORAD_CAT_ID":49190,"ELEMENT_SET_NO":999,"REV_AT_EPOCH":19744,"BSTAR":0.00018758341,"MEAN_MOTION_DOT":8.7e-7,"MEAN_MOTION_DDOT":0},{"OBJECT_NAME":"ONEWEB-0321","OBJECT_ID":"2021-083F","EPOCH":"2025-10-13T03:47:34.107360","MEAN_MOTION":13.20770622,"ECCENTRICITY":0.00020288,"INCLINATION":87.9224,"RA_OF_ASC_NODE":323.6969,"ARG_OF_PERICENTER":104.6776,"MEAN_ANOMALY":255.4582,"EPHEMERIS_TYPE":0,"CLASSIFICATION_TYPE":"U","NORAD_CAT_ID":49191,"ELEMENT_SET_NO":999,"REV_AT_EPOCH":20422,"BSTAR":0.00016230421,"MEAN_MOTION_DOT":7.9e-7,"MEAN_MOTION_DDOT":0},{"OBJECT_NAME":"ONEWEB-0322","OBJECT_ID":"2021-083G","EPOCH":"2025-10-13T06:19:53.986656","MEAN_MOTION":13.13471218,"ECCENTRICITY":0.00018268,"INCLINATION":87.9043,"RA_OF_ASC_NODE":9.3262,"ARG_OF_PERICENTER":117.5597,"MEAN_ANOMALY":242.5718,"EPHEMERIS_TYPE":0,"CLASSIFICATION_TYPE":"U","NORAD_CAT_ID":49192,"ELEMENT_SET_NO":999,"REV_AT_EPOCH":19850,"BSTAR":-0.00056684466,"MEAN_MOTION_DOT":-1.94e-6,"MEAN_MOTION_DDOT":0},{"OBJECT_NAME":"ONEWEB-0324","OBJECT_ID":"2021-083H","EPOCH":"2025-10-13T07:25:41.598336","MEAN_MOTION":13.18683678,"ECCENTRICITY":0.00019535,"INCLINATION":87.9228,"RA_OF_ASC_NODE":24.474,"ARG_OF_PERICENTER":99.4366,"MEAN_ANOMALY":260.6987,"EPHEMERIS_TYPE":0,"CLASSIFICATION_TYPE":"U","NORAD_CAT_ID":49193,"ELEMENT_SET_NO":999,"REV_AT_EPOCH":19746,"BSTAR":2.4893183e-5,"MEAN_MOTION_DOT":2.3e-7,"MEAN_MOTION_DDOT":0},{"OBJECT_NAME":"ONEWEB-0325","OBJECT_ID":"2021-083J","EPOCH":"2025-10-13T07:30:27.899424","MEAN_MOTION":13.18687384,"ECCENTRICITY":0.00017513,"INCLINATION":87.9231,"RA_OF_ASC_NODE":24.4912,"ARG_OF_PERICENTER":103.6816,"MEAN_ANOMALY":256.4511,"EPHEMERIS_TYPE":0,"CLASSIFICATION_TYPE":"U","NORAD_CAT_ID":49194,"ELEMENT_SET_NO":999,"REV_AT_EPOCH":19747,"BSTAR":8.479821e-6,"MEAN_MOTION_DOT":1.6e-7,"MEAN_MOTION_DDOT":0},{"OBJECT_NAME":"ONEWEB-0326","OBJECT_ID":"2021-083K","EPOCH":"2025-10-13T07:52:00.510816","MEAN_MOTION":13.1868729,"ECCENTRICITY":0.0001675,"INCLINATION":87.9226,"RA_OF_ASC_NODE":24.4759,"ARG_OF_PERICENTER":91.2134,"MEAN_ANOMALY":268.919,"EPHEMERIS_TYPE":0,"CLASSIFICATION_TYPE":"U","NORAD_CAT_ID":49195,"ELEMENT_SET_NO":999,"REV_AT_EPOCH":19746,"BSTAR":-0.00039709893,"MEAN_MOTION_DOT":-1.44e-6,"MEAN_MOTION_DDOT":0},{"OBJECT_NAME":"ONEWEB-0327","OBJECT_ID":"2021-083L","EPOCH":"2025-10-13T07:51:38.627424","MEAN_MOTION":13.1868661,"ECCENTRICITY":0.0001501,"INCLINATION":87.9221,"RA_OF_ASC_NODE":24.5003,"ARG_OF_PERICENTER":91.1141,"MEAN_ANOMALY":269.0163,"EPHEMERIS_TYPE":0,"CLASSIFICATION_TYPE":"U","NORAD_CAT_ID":49196,"ELEMENT_SET_NO":999,"REV_AT_EPOCH":19748,"BSTAR":0.0001081899,"MEAN_MOTION_DOT":5.6e-7,"MEAN_MOTION_DDOT":0},{"OBJECT_NAME":"ONEWEB-0328","OBJECT_ID":"2021-083M","EPOCH":"2025-10-13T06:05:15.581184","MEAN_MOTION":13.13470892,"ECCENTRICITY":0.00019666,"INCLINATION":87.9054,"RA_OF_ASC_NODE":9.2682,"ARG_OF_PERICENTER":99.4973,"MEAN_ANOMALY":260.6378,"EPHEMERIS_TYPE":0,"CLASSIFICATION_TYPE":"U","NORAD_CAT_ID":49197,"ELEMENT_SET_NO":999,"REV_AT_EPOCH":19848,"BSTAR":-0.00041838943,"MEAN_MOTION_DOT":-1.4e-6,"MEAN_MOTION_DDOT":0},{"OBJECT_NAME":"ONEWEB-0331","OBJECT_ID":"2021-083N","EPOCH":"2025-10-13T07:42:19.806912","MEAN_MOTION":13.18687585,"ECCENTRICITY":0.00018537,"INCLINATION":87.923,"RA_OF_ASC_NODE":24.4697,"ARG_OF_PERICENTER":89.016,"MEAN_ANOMALY":271.1185,"EPHEMERIS_TYPE":0,"CLASSIFICATION_TYPE":"U","NORAD_CAT_ID":49198,"ELEMENT_SET_NO":999,"REV_AT_EPOCH":19747,"BSTAR":0.00015395854,"MEAN_MOTION_DOT":7.4e-7,"MEAN_MOTION_DDOT":0}]
